MALLIGYONG-1            
1 58400U 23179A   24058.59028081  .00006167  00000+0  27934-3 0  9998
2 58400  97.4195 307.0882 0007936 295.1675  64.8737 15.21204991 14905
